[{"OBJECT_NAME":"ONEWEB-0622","OBJECT_ID":"2023-004Z","EPOCH":"2026-03-09T21:48:00.263232","MEAN_MOTION":13.11417967,"ECCENTRICITY":0.00020924,"INCLINATION":87.8866,"RA_OF_ASC_NODE":40.7999,"ARG_OF_PERICENTER":62.907,"MEAN_ANOMALY":297.2271,"EPHEMERIS_TYPE":0,"CLASSIFICATION_TYPE":"U","NORAD_CAT_ID":55163,"ELEMENT_SET_NO":999,"REV_AT_EPOCH":15278,"BSTAR":0.0016403885,"MEAN_MOTION_DOT":5.94e-6,"MEAN_MOTION_DDOT":0},{"OBJECT_NAME":"COSMOS 2251 DEB","OBJECT_ID":"1993-036APL","EPOCH":"2026-03-05T05:05:41.404992","MEAN_MOTION":13.57396255,"ECCENTRICITY":0.0385122,"INCLINATION":73.8623,"RA_OF_ASC_NODE":24.8166,"ARG_OF_PERICENTER":122.6033,"MEAN_ANOMALY":241.2872,"EPHEMERIS_TYPE":0,"CLASSIFICATION_TYPE":"U","NORAD_CAT_ID":35669,"ELEMENT_SET_NO":999,"REV_AT_EPOCH":61908,"BSTAR":0.00074275,"MEAN_MOTION_DOT":8.41e-6,"MEAN_MOTION_DDOT":0}]
